GORIZONT 1 [-]          
1 11158U 78118A   22248.32144283 -.00000097  00000+0  00000+0 0  9991
2 11158  11.0834 202.2793 3462633 285.5591  39.2609  1.00306701109098
GORIZONT 2 [-]          
1 11440U 79062A   22249.16353003  .00000031  00000+0  00000+0 0  9996
2 11440   9.1020 300.9021 0003235 250.3288 273.1038  1.00281064124182
GORIZONT 3 [-]          
1 11648U 79105A   22249.20813413  .00000025  00000+0  00000+0 0  9998
2 11648   9.2618 302.3395 0014218 213.5630 323.9050  1.00339483108641
GORIZONT 4 [-]          
1 11841U 80049A   22249.42124514 -.00000059  00000+0  00000+0 0  9991
2 11841  10.4126 308.1242 0001009 207.1240 190.4273  0.98629900219918
GORIZONT 5 [-]          
1 13092U 82020A   22249.22514441  .00000000  00000+0  00000+0 0  9997
2 13092  11.4061 313.4166 0034573 212.4232 161.3036  0.98530533108007
GORIZONT 6 [-]          
1 13624U 82103A   22249.48339816  .00000084  00000+0  00000+0 0  9991
2 13624  10.3271 313.4520 0002917 188.1944 206.6556  1.00284138107100
GORIZONT 7 [-]          
1 14160U 83066A   22249.40786543 -.00000091  00000+0  00000+0 0  9990
2 14160  11.9893 322.7963 0008529 313.5589  64.1221  0.98348446141227
GORIZONT 8 [-]          
1 14532U 83118A   22249.48783501 -.00000029  00000+0  00000+0 0  9991
2 14532  12.1631 324.6477 0030709 150.4354 134.6531  0.98268510106947
GORIZONT 9 [-]          
1 14940U 84041A   22249.48425354 -.00000181  00000+0  00000+0 0  9998
2 14940  11.3550 322.6848 0004957 205.8333  75.6034  1.00226957108104
GORIZONT 10 [-]         
1 15144U 84078A   22249.48396292  .00000114  00000+0  00000+0 0  9998
2 15144  11.4499 323.7117 0001258 149.4648 250.9764  1.00212668140779
GORIZONT 11 [-]         
1 15484U 85007A   22249.49075477 -.00000267  00000+0  00000+0 0  9998
2 15484  11.6313 325.6884 0004887 154.6072 131.6720  1.00390288138796
GORIZONT 12 [-]         
1 16769U 86044A   22248.76411750 -.00000007  00000+0  00000+0 0  9996
2 16769  12.2503 331.0629 0002060 193.3819 161.0297  1.00199997133413
GORIZONT 13 [-]         
1 17083U 86090A   22249.54534000 -.00000156  00000+0  00000+0 0  9993
2 17083  14.1253 338.2229 0012100 341.3210  45.8293  0.96727194105309
GORIZONT 14 [-]         
1 17969U 87040A   22249.14129392 -.00000131  00000+0  00000+0 0  9995
2 17969  13.0715 329.6336 0032563 173.8839 201.9656  0.97659353106385
GORIZONT 15 [-]         
1 19017U 88028A   22249.48442269 -.00000050  00000+0  00000+0 0  9996
2 19017  14.4138 341.0528 0038703 156.0559 108.1245  0.97826360106005
GORIZONT 16 [-]         
1 19397U 88071A   22249.28535571 -.00000169  00000+0  00000+0 0  9993
2 19397  13.2650 339.7380 0014123  68.3628 310.8790  0.99967440124446
GORIZONT 17 [-]         
1 19765U 89004A   22249.49894793 -.00000148  00000+0  00000+0 0  9993
2 19765  13.8111 343.0802 0024375 133.5373 154.2183  0.99065088121903
GORIZONT 18 [-]         
1 20107U 89052A   22249.51638880 -.00000337  00000+0  00000+0 0  9994
2 20107  13.8544 344.3400 0032843 318.5162  10.6060  0.99404736120694
GORIZONT 19 [-]         
1 20263U 89081A   22248.87542007  .00000044  00000+0  00000+0 0  9996
2 20263  13.5851 343.5347 0004238 194.7422 176.8516  1.00342651 33500
GORIZONT 20 [-]         
1 20659U 90054A   22249.49129260 -.00000306  00000+0  00000+0 0  9990
2 20659  14.0205 346.3553 0007276 164.0355 109.0418  1.00268838117852
GORIZONT 21 [-]         
1 20923U 90094A   22249.27784969 -.00000241  00000+0  00000+0 0  9995
2 20923  14.0339 347.1277 0005351 193.1610 179.2070  1.00383039116612
GORIZONT 22 [-]         
1 20953U 90102A   22249.51775785 -.00000297  00000+0  00000+0 0  9992
2 20953  13.9924 347.4929 0002523  39.1014 286.3317  1.00275786116539
GORIZONT 23 [-]         
1 21533U 91046A   22249.24424437 -.00000105  00000+0  00000+0 0  9998
2 21533  14.7529 351.6415 0002236 311.5969  52.5415  0.98907531 33040
GORIZONT 24 [-]         
1 21759U 91074A   22249.07711448 -.00000225  00000+0  00000+0 0  9994
2 21759  14.9073 353.5451 0017734 221.6163 144.8525  0.98445415111371
GORIZONT 25 [-]         
1 21922U 92017A   22249.04354987 -.00000109  00000+0  00000+0 0  9993
2 21922  14.4502 352.8771 0029488  83.9794 283.7350  0.99858283111168
GORIZONT 26 [-]         
1 22041U 92043A   22249.55868434 -.00000067  00000+0  00000+0 0  9991
2 22041  14.6197 354.8741 0030527 232.3310 154.1617  0.99245397109780
GORIZONT 27 [-]         
1 22245U 92082A   22249.48028676 -.00000071  00000+0  00000+0 0  9993
2 22245  14.5364 354.4708 0011235  16.2431 220.7738  1.00138241113295
GORIZONT 28 [-]         
1 22880U 93069A   22249.49786163  .00000036  00000+0  00000+0 0  9997
2 22880  14.6766 358.3302 0035668 132.4683 235.0265  0.99654936105382
GORIZONT 29 [-]         
1 22907U 93072A   22248.07468720 -.00000076  00000+0  00000+0 0  9995
2 22907  14.5895 357.8047 0008628 351.6956  18.6138  1.00162066105372
GORIZONT 30 [-]         
1 23108U 94030A   22249.28499882 -.00000270  00000+0  00000+0 0  9997
2 23108  14.6014 358.7010 0002935 149.0602  84.8282  1.00280216103621
GORIZONT 31 [-]         
1 23775U 96005A   22249.44224983  .00000055  00000+0  00000+0 0  9997
2 23775  14.5114   4.9097 0018659 198.4449 172.2627  0.99885826 97265
GORIZONT 32 [-]         
1 23880U 96034A   22249.51115642  .00000093  00000+0  00000+0 0  9997
2 23880  14.4601   5.4267 0007981   0.7128  14.2073  1.00169258 96224
GORIZONT 33 [-]         
1 26372U 00029A   22249.26559229 -.00000245  00000+0  00000+0 0  9990
2 26372  13.1718  16.6075 0004653 101.2184 292.0704  1.00314358 81595
